STARLINK-4346
1 53073U 22077AG  26092.79280087  .00008032  00000+0  36686-3 0  9990
2 53073  97.6379 281.2341 0006219 131.2943 228.8828 15.20840316204962
